[{"OBJECT_NAME":"NOAA 21 (JPSS-2)","OBJECT_ID":"2022-150A","EPOCH":"2026-03-09T22:24:21.794976","MEAN_MOTION":14.19552367,"ECCENTRICITY":0.00026632,"INCLINATION":98.7554,"RA_OF_ASC_NODE":9.1966,"ARG_OF_PERICENTER":105.7668,"MEAN_ANOMALY":254.3802,"EPHEMERIS_TYPE":0,"CLASSIFICATION_TYPE":"U","NORAD_CAT_ID":54234,"ELEMENT_SET_NO":999,"REV_AT_EPOCH":17246,"BSTAR":8.7164891e-5,"MEAN_MOTION_DOT":1.4e-6,"MEAN_MOTION_DDOT":0},{"OBJECT_NAME":"METEOR 2-7","OBJECT_ID":"1981-043A","EPOCH":"2026-03-09T20:28:20.358624","MEAN_MOTION":14.1103287,"ECCENTRICITY":0.00477851,"INCLINATION":81.2677,"RA_OF_ASC_NODE":195.6854,"ARG_OF_PERICENTER":52.8625,"MEAN_ANOMALY":307.6897,"EPHEMERIS_TYPE":0,"CLASSIFICATION_TYPE":"U","NORAD_CAT_ID":12456,"ELEMENT_SET_NO":999,"REV_AT_EPOCH":30504,"BSTAR":3.4274979e-5,"MEAN_MOTION_DOT":7.5e-7,"MEAN_MOTION_DDOT":0}]
